#aV2009  4 19  0  0   .00000000      96 DD+AD WGS84 FIT  NGA
## 1528       .00000000   900.00000000 54940  .0000000000000
+   31     2  3  4  5  6  7  8  9 10 11 12 13 14 15 16 17 18
+         19 20 21 22 23 24 25 26 27 28 29 30 31 32  0  0  0
+          0  0  0  0  0  0  0  0  0  0  0  0  0  0  0  0  0
+          0  0  0  0  0  0  0  0  0  0  0  0  0  0  0  0  0
+          0  0  0  0  0  0  0  0  0  0  0  0  0  0  0  0  0
++         0  0  0  0  0  0  0  0  0  0  0  0  0  0  0  0  0
++         0  0  0  0  0  0  0  0  0  0  0  0  0  0  0  0  0
++         0  0  0  0  0  0  0  0  0  0  0  0  0  0  0  0  0
++         0  0  0  0  0  0  0  0  0  0  0  0  0  0  0  0  0
++         0  0  0  0  0  0  0  0  0  0  0  0  0  0  0  0  0
%c cc cc ccc ccc cccc cccc cccc cccc ccccc ccccc ccccc ccccc
%c cc cc ccc ccc cccc cccc cccc cccc ccccc ccccc ccccc ccccc
%f  0.0000000  0.000000000  0.00000000000  0.000000000000000
%f  0.0000000  0.000000000  0.00000000000  0.000000000000000
%i    0    0    0    0      0      0      0      0         0
%i    0    0    0    0      0      0      0      0         0
/*      NGA, ST. LOUIS,MO.                                  
/*   EPHEMERIS COMPUTED FROM  3 DAYS OF DATA                
/* CCCCCCCCCCCCCCCCCCCCCCCCCCCCCCCCCCCCCCCCCCCCCCCCCCCCCCCCC
/* CCCCCCCCCCCCCCCCCCCCCCCCCCCCCCCCCCCCCCCCCCCCCCCCCCCCCCCCC
*  2009  4 19 23  0   .00000000                                                 
P  2   2604.561087  17456.833622  19854.999728    153.547670                    
V  2 -23204.658714 -10377.873208  11698.576938       .000403                    
P  3   1108.799405 -19006.510084 -18688.168505    381.853056                    
V  3  19386.438566 -13169.415667  15145.019777       .052101                    
P  4 -11742.535811  11113.001742  20989.865641    -58.366893                    
V  4 -23654.362003 -12979.310791  -5957.923050      -.150022                    
P  5  14268.502867  14702.220072  16666.304118    -41.024219                    
V  5   1024.939694  21811.391561 -19641.854666      -.145360                    
P  6   7376.385554 -19704.289852 -15989.534733     87.952872                    
V  6  18396.826640  -9936.985827  20534.073241       .168955                    
P  7 -24342.786080  -5297.720564  -9391.596186     20.124154                    
V  7  -9484.662021  -7466.065294  28742.196631      -.005608                    
P  8 -18051.024958   4052.222812 -19299.443986   -199.246723                    
V  8 -20405.267051 -12947.179899  15927.780431      -.017665                    
P  9  20395.835765  15520.841072  -7806.028082     51.649551                    
V  9  -8977.883919  -2059.575464 -29978.460530       .019520                    
P 10   2022.625835  26227.896558  -2049.264360    -14.647433                    
V 10  -3109.219608   2502.524158  31787.722053      -.005988                    
P 11 -22892.989901 -12064.608435  -6937.662882       .534345                    
V 11   9436.381331  -1982.697889 -28171.708467      -.014163                    
P 12  12173.336512  16941.019645  16582.528628   -292.041010                    
V 12   -763.141999  20906.747318 -20775.372619       .048480                    
P 13 -23112.943149   3793.819008  12390.864818    294.954608                    
V 13  13120.106496  -9082.395034  26980.972792       .010405                    
P 14  21050.968517 -15580.131998   4155.784646   -123.262687                    
V 14   5425.902703   -899.249444 -31859.612645       .058136                    
P 15   5975.897141  14273.367044 -21559.055571   -283.005288                    
V 15 -23097.698867  14837.531666   3476.277571      -.042114                    
P 16   1631.248954 -26179.987501   3314.540444     58.019500                    
V 16   2869.958607   4088.948534  31693.897174      -.031449                    
P 17 -21622.003253  15104.666940   2129.904867     55.030678                    
V 17  -3824.429491  -1167.061091 -31703.554407       .017274                    
P 18  15223.718926  -4381.426745 -21057.393162    -64.112160                    
V 18   1175.941386  27352.985287  -5158.967627       .033784                    
P 19  -7888.126293 -13072.164574 -21670.674660     27.890249                    
V 19  24349.431396 -13168.009475   -676.500264      -.009448                    
P 20 -13658.941208 -14647.550553  17336.644750     84.876438                    
V 20    444.346969 -22394.094134 -18389.250295      -.010474                    
P 21  23658.373890   2588.051705 -12164.656346     18.358151                    
V 21  12532.359924   9746.926814  25291.159314      -.020022                    
P 22  12208.104877 -16197.387684 -16958.655065    201.281211                    
V 22   2422.879192  21896.060050 -19063.108257      -.006505                    
P 23 -17165.301312  -5064.571786  19664.474478    389.516920                    
V 23  20570.612536 -14179.802269  13997.075482       .002883                    
P 24  22920.629324  13127.462557   -274.865036    182.557328                    
V 24  -1247.245068   3153.583994  31710.254900       .029008                    
P 25 -24837.853958  -8913.669421  -1468.085972    368.624528                    
V 25  -1109.306822  -3388.243956  32005.301979       .208529                    
P 26  10774.954622  10690.708220 -22407.285097     57.558156                    
V 26 -23475.137447  13279.714271  -4560.548318       .017905                    
P 27  10503.018787  17108.963081 -16719.251431     42.260173                    
V 27 -21256.654736  -7560.882475 -20335.865421       .031619                    
P 28 -12517.655986  13715.081358 -18435.989128    -24.101733                    
V 28  -2073.338533 -24376.533119 -16658.713656      -.002489                    
P 29  22632.273757  -2455.487601  13758.679055     11.488937                    
V 29 -13658.307160  10857.609103  24633.970515       .041928                    
P 30  15319.909809   4883.428484  20789.976796    140.414769                    
V 30   1676.761428  27218.605767  -7415.824815       .025890                    
P 31   8959.507736 -12261.442692  22008.391367    -58.155495                    
V 31  24299.573621  12654.072380  -2732.873314      -.010396                    
P 32  -8121.974713 -22097.320840  12932.554135    272.450168                    
V 32   2514.555035 -15597.499789 -25632.016343      -.049850                    
EOF
